[{"OBJECT_NAME":"COSMOS 2251 DEB","OBJECT_ID":"1993-036BDU","EPOCH":"2026-04-01T20:48:29.261376","MEAN_MOTION":14.56247522,"ECCENTRICITY":0.00115541,"INCLINATION":74.0421,"RA_OF_ASC_NODE":305.8857,"ARG_OF_PERICENTER":5.7544,"MEAN_ANOMALY":354.375,"EPHEMERIS_TYPE":0,"CLASSIFICATION_TYPE":"U","NORAD_CAT_ID":36558,"ELEMENT_SET_NO":999,"REV_AT_EPOCH":86871,"BSTAR":0.00069031882,"MEAN_MOTION_DOT":3.029e-5,"MEAN_MOTION_DDOT":0},{"OBJECT_NAME":"COSMOS 2251 DEB","OBJECT_ID":"1993-036BDV","EPOCH":"2026-04-02T15:56:52.437120","MEAN_MOTION":13.97067937,"ECCENTRICITY":0.02603654,"INCLINATION":74.1274,"RA_OF_ASC_NODE":179.914,"ARG_OF_PERICENTER":187.1741,"MEAN_ANOMALY":172.5641,"EPHEMERIS_TYPE":0,"CLASSIFICATION_TYPE":"U","NORAD_CAT_ID":36559,"ELEMENT_SET_NO":999,"REV_AT_EPOCH":82642,"BSTAR":0.004438215,"MEAN_MOTION_DOT":8.242e-5,"MEAN_MOTION_DDOT":0},{"OBJECT_NAME":"COSMOS 2251 DEB","OBJECT_ID":"1993-036BEC","EPOCH":"2026-04-04T08:07:32.902464","MEAN_MOTION":14.61942265,"ECCENTRICITY":0.00138437,"INCLINATION":74.0226,"RA_OF_ASC_NODE":319.1487,"ARG_OF_PERICENTER":2.1185,"MEAN_ANOMALY":358.0038,"EPHEMERIS_TYPE":0,"CLASSIFICATION_TYPE":"U","NORAD_CAT_ID":36614,"ELEMENT_SET_NO":999,"REV_AT_EPOCH":67257,"BSTAR":0.0018270225,"MEAN_MOTION_DOT":9.144e-5,"MEAN_MOTION_DDOT":0},{"OBJECT_NAME":"COSMOS 2251 DEB","OBJECT_ID":"1993-036BEL","EPOCH":"2026-04-05T05:35:58.362432","MEAN_MOTION":14.77353897,"ECCENTRICITY":0.0065901,"INCLINATION":74.0122,"RA_OF_ASC_NODE":282.7257,"ARG_OF_PERICENTER":29.213,"MEAN_ANOMALY":331.2704,"EPHEMERIS_TYPE":0,"CLASSIFICATION_TYPE":"U","NORAD_CAT_ID":36622,"ELEMENT_SET_NO":999,"REV_AT_EPOCH":68425,"BSTAR":0.00071023,"MEAN_MOTION_DOT":5.201e-5,"MEAN_MOTION_DDOT":0},{"OBJECT_NAME":"COSMOS 2251 DEB","OBJECT_ID":"1993-036BEW","EPOCH":"2026-04-01T17:18:01.231776","MEAN_MOTION":14.4378626,"ECCENTRICITY":0.00340945,"INCLINATION":73.9983,"RA_OF_ASC_NODE":87.563,"ARG_OF_PERICENTER":176.4514,"MEAN_ANOMALY":183.6892,"EPHEMERIS_TYPE":0,"CLASSIFICATION_TYPE":"U","NORAD_CAT_ID":36632,"ELEMENT_SET_NO":999,"REV_AT_EPOCH":66802,"BSTAR":0.00071094983,"MEAN_MOTION_DOT":2.41e-5,"MEAN_MOTION_DDOT":0},{"OBJECT_NAME":"COSMOS 2251 DEB","OBJECT_ID":"1993-036BFE","EPOCH":"2026-04-05T05:30:53.126784","MEAN_MOTION":15.02980755,"ECCENTRICITY":0.0092934,"INCLINATION":74.0262,"RA_OF_ASC_NODE":289.9044,"ARG_OF_PERICENTER":339.0123,"MEAN_ANOMALY":20.7259,"EPHEMERIS_TYPE":0,"CLASSIFICATION_TYPE":"U","NORAD_CAT_ID":37084,"ELEMENT_SET_NO":999,"REV_AT_EPOCH":67971,"BSTAR":0.00050428,"MEAN_MOTION_DOT":7.416e-5,"MEAN_MOTION_DDOT":0},{"OBJECT_NAME":"COSMOS 2251 DEB","OBJECT_ID":"1993-036BFK","EPOCH":"2026-04-05T06:23:13.871328","MEAN_MOTION":14.55601859,"ECCENTRICITY":0.0129442,"INCLINATION":74.0354,"RA_OF_ASC_NODE":290.9988,"ARG_OF_PERICENTER":3.4454,"MEAN_ANOMALY":356.7568,"EPHEMERIS_TYPE":0,"CLASSIFICATION_TYPE":"U","NORAD_CAT_ID":37089,"ELEMENT_SET_NO":999,"REV_AT_EPOCH":67760,"BSTAR":0.0017055,"MEAN_MOTION_DOT":8.31e-5,"MEAN_MOTION_DDOT":0},{"OBJECT_NAME":"COSMOS 2251 DEB","OBJECT_ID":"1993-036BFQ","EPOCH":"2026-04-05T18:03:22.535424","MEAN_MOTION":14.3855604,"ECCENTRICITY":0.0083418,"INCLINATION":74.1057,"RA_OF_ASC_NODE":272.0117,"ARG_OF_PERICENTER":208.2457,"MEAN_ANOMALY":151.4163,"EPHEMERIS_TYPE":0,"CLASSIFICATION_TYPE":"U","NORAD_CAT_ID":37094,"ELEMENT_SET_NO":999,"REV_AT_EPOCH":86145,"BSTAR":0.001228,"MEAN_MOTION_DOT":3.887e-5,"MEAN_MOTION_DDOT":0},{"OBJECT_NAME":"COSMOS 2251 DEB","OBJECT_ID":"1993-036BFR","EPOCH":"2026-04-05T10:20:15.000288","MEAN_MOTION":14.04016889,"ECCENTRICITY":0.01924445,"INCLINATION":73.8488,"RA_OF_ASC_NODE":349.5626,"ARG_OF_PERICENTER":27.6134,"MEAN_ANOMALY":333.5062,"EPHEMERIS_TYPE":0,"CLASSIFICATION_TYPE":"U","NORAD_CAT_ID":37095,"ELEMENT_SET_NO":999,"REV_AT_EPOCH":64231,"BSTAR":0.0019527601,"MEAN_MOTION_DOT":3.617e-5,"MEAN_MOTION_DDOT":0},{"OBJECT_NAME":"COSMOS 2251 DEB","OBJECT_ID":"1993-036BFX","EPOCH":"2026-03-14T13:16:36.935328","MEAN_MOTION":14.66387093,"ECCENTRICITY":0.00424934,"INCLINATION":74.0313,"RA_OF_ASC_NODE":276.9889,"ARG_OF_PERICENTER":338.876,"MEAN_ANOMALY":21.0652,"EPHEMERIS_TYPE":0,"CLASSIFICATION_TYPE":"U","NORAD_CAT_ID":37101,"ELEMENT_SET_NO":999,"REV_AT_EPOCH":67017,"BSTAR":0.00093342466,"MEAN_MOTION_DOT":5.201e-5,"MEAN_MOTION_DDOT":0},{"OBJECT_NAME":"COSMOS 2251 DEB","OBJECT_ID":"1993-036BGE","EPOCH":"2026-04-04T18:42:16.875072","MEAN_MOTION":14.42234507,"ECCENTRICITY":0.00919623,"INCLINATION":74.0432,"RA_OF_ASC_NODE":231.1444,"ARG_OF_PERICENTER":279.4652,"MEAN_ANOMALY":79.6118,"EPHEMERIS_TYPE":0,"CLASSIFICATION_TYPE":"U","NORAD_CAT_ID":37108,"ELEMENT_SET_NO":999,"REV_AT_EPOCH":87136,"BSTAR":0.0014843377,"MEAN_MOTION_DOT":5.123e-5,"MEAN_MOTION_DDOT":0},{"OBJECT_NAME":"COSMOS 2251 DEB","OBJECT_ID":"1993-036BGQ","EPOCH":"2026-04-05T14:40:21.236160","MEAN_MOTION":14.81952156,"ECCENTRICITY":0.000477,"INCLINATION":74.0147,"RA_OF_ASC_NODE":218.7779,"ARG_OF_PERICENTER":277.9886,"MEAN_ANOMALY":82.075,"EPHEMERIS_TYPE":0,"CLASSIFICATION_TYPE":"U","NORAD_CAT_ID":37118,"ELEMENT_SET_NO":999,"REV_AT_EPOCH":67236,"BSTAR":0.0024646,"MEAN_MOTION_DOT":0.00019562,"MEAN_MOTION_DDOT":0},{"OBJECT_NAME":"COSMOS 2251 DEB","OBJECT_ID":"1993-036BGY","EPOCH":"2026-03-28T10:16:18.567552","MEAN_MOTION":14.73425876,"ECCENTRICITY":0.01215018,"INCLINATION":73.9511,"RA_OF_ASC_NODE":147.4478,"ARG_OF_PERICENTER":359.4265,"MEAN_ANOMALY":0.6747,"EPHEMERIS_TYPE":0,"CLASSIFICATION_TYPE":"U","NORAD_CAT_ID":37126,"ELEMENT_SET_NO":999,"REV_AT_EPOCH":9655,"BSTAR":0.00016364548,"MEAN_MOTION_DOT":1.155e-5,"MEAN_MOTION_DDOT":0},{"OBJECT_NAME":"COSMOS 2251 DEB","OBJECT_ID":"1993-036BHE","EPOCH":"2026-04-03T01:01:27.167520","MEAN_MOTION":14.79771406,"ECCENTRICITY":0.00404551,"INCLINATION":74.0045,"RA_OF_ASC_NODE":14.7607,"ARG_OF_PERICENTER":147.349,"MEAN_ANOMALY":213.02,"EPHEMERIS_TYPE":0,"CLASSIFICATION_TYPE":"U","NORAD_CAT_ID":37132,"ELEMENT_SET_NO":999,"REV_AT_EPOCH":64061,"BSTAR":0.001861379,"MEAN_MOTION_DOT":0.00014198,"MEAN_MOTION_DDOT":0},{"OBJECT_NAME":"COSMOS 2251 DEB","OBJECT_ID":"1993-036BHJ","EPOCH":"2026-04-05T13:29:10.071168","MEAN_MOTION":13.60890183,"ECCENTRICITY":0.0392262,"INCLINATION":73.934,"RA_OF_ASC_NODE":149.9779,"ARG_OF_PERICENTER":141.7924,"MEAN_ANOMALY":221.1701,"EPHEMERIS_TYPE":0,"CLASSIFICATION_TYPE":"U","NORAD_CAT_ID":37270,"ELEMENT_SET_NO":999,"REV_AT_EPOCH":78617,"BSTAR":0.0020079,"MEAN_MOTION_DOT":2.516e-5,"MEAN_MOTION_DDOT":0},{"OBJECT_NAME":"COSMOS 2251 DEB","OBJECT_ID":"1993-036BHS","EPOCH":"2026-03-31T12:15:26.154432","MEAN_MOTION":14.15670355,"ECCENTRICITY":0.02988854,"INCLINATION":73.7853,"RA_OF_ASC_NODE":152.938,"ARG_OF_PERICENTER":316.1456,"MEAN_ANOMALY":103.4614,"EPHEMERIS_TYPE":0,"CLASSIFICATION_TYPE":"U","NORAD_CAT_ID":37278,"ELEMENT_SET_NO":999,"REV_AT_EPOCH":65368,"BSTAR":0.0011011777,"MEAN_MOTION_DOT":3.303e-5,"MEAN_MOTION_DDOT":0}]
