COSMOS 2251 DEB         
1 36558U 93036BDU 26091.86700534  .00003029  00000+0  69032-3 0  9995
2 36558  74.0421 305.8857 0011554   5.7544 354.3750 14.56247522868719
COSMOS 2251 DEB         
1 36559U 93036BDV 26092.66449580  .00008242  00000+0  44382-2 0  9998
2 36559  74.1274 179.9140 0260365 187.1741 172.5641 13.97067937826427
COSMOS 2251 DEB         
1 36614U 93036BEC 26094.33857526  .00009144  00000+0  18270-2 0  9998
2 36614  74.0226 319.1487 0013843   2.1185 358.0038 14.61942265672576
COSMOS 2251 DEB         
1 36622U 93036BEL 26095.23331438  .00005201  00000+0  71023-3 0  9992
2 36622  74.0122 282.7257 0065901  29.2130 331.2704 14.77353897684257
COSMOS 2251 DEB         
1 36632U 93036BEW 26091.72084759  .00002410  00000+0  71095-3 0  9992
2 36632  73.9983  87.5630 0034094 176.4514 183.6892 14.43786260668028
COSMOS 2251 DEB         
1 37084U 93036BFE 26095.22978156  .00007416  00000+0  50428-3 0  9994
2 37084  74.0262 289.9044 0092934 339.0123  20.7259 15.02980755679716
COSMOS 2251 DEB         
1 37089U 93036BFK 26095.26613277  .00008310  00000+0  17055-2 0  9995
2 37089  74.0354 290.9988 0129442   3.4454 356.7568 14.55601859677609
COSMOS 2251 DEB         
1 37094U 93036BFQ 26095.75234416  .00003887  00000+0  12280-2 0  9998
2 37094  74.1057 272.0117 0083418 208.2457 151.4163 14.38556040861452
COSMOS 2251 DEB         
1 37095U 93036BFR 26095.43072917  .00003617  00000+0  19528-2 0  9993
2 37095  73.8488 349.5626 0192444  27.6134 333.5062 14.04016889642315
COSMOS 2251 DEB         
1 37101U 93036BFX 26073.55320527  .00005201  00000+0  93342-3 0  9991
2 37101  74.0313 276.9889 0042493 338.8760  21.0652 14.66387093670172
COSMOS 2251 DEB         
1 37108U 93036BGE 26094.77936198  .00005123  00000+0  14843-2 0  9993
2 37108  74.0432 231.1444 0091962 279.4652  79.6118 14.42234507871361
COSMOS 2251 DEB         
1 37118U 93036BGQ 26095.61135690  .00019562  00000+0  24646-2 0  9990
2 37118  74.0147 218.7779 0004770 277.9886  82.0750 14.81952156672369
COSMOS 2251 DEB         
1 37126U 93036BGY 26087.42799268  .00001155  00000+0  16365-3 0  9995
2 37126  73.9511 147.4478 0121501 359.4265   0.6747 14.73425876 96552
COSMOS 2251 DEB         
1 37132U 93036BHE 26093.04267555  .00014198  00000+0  18614-2 0  9995
2 37132  74.0045  14.7607 0040455 147.3490 213.0200 14.79771406640610
COSMOS 2251 DEB         
1 37270U 93036BHJ 26095.56192212  .00002516  00000+0  20079-2 0  9993
2 37270  73.9340 149.9779 0392262 141.7924 221.1701 13.60890183786177
COSMOS 2251 DEB         
1 37278U 93036BHS 26090.51071938  .00003303  00000+0  11012-2 0  9994
2 37278  73.7853 152.9380 0298885 316.1456 103.4614 14.15670355653680
